start=new Date('2022-04-12T00:00:00.000Z').valueOf();
sats=[{"COUNTRY_CODE":"US","INCLINATION":"53.0555","MEAN_ANOMALY":"288.8060","FILE":"3397723","DECAY_DATE":null,"PERIAPSIS":"546.193","SEMIMAJOR_AXIS":"6925.328","SITE":"AFETR","REF_FRAME":"TEME","TLE_LINE1":"1 45712U 20035BH  22101.89277913  .00003828  00000-0  27568-3 0  9993","GP_ID":"201015659","CENTER_NAME":"EARTH","RA_OF_ASC_NODE":"326.2569","NORAD_CAT_ID":"45712","MEAN_MOTION_DDOT":"0.0000000000000","TIME_SYSTEM":"UTC","ELEMENT_SET_NO":"999","OBJECT_TYPE":"PAYLOAD","EPHEMERIS_TYPE":"0","BSTAR":"0.00027568000000","MEAN_MOTION":"15.06406719","ARG_OF_PERICENTER":"71.3085","OBJECT_ID":"2020-035BH","MEAN_ELEMENT_THEORY":"SGP4","PERIOD":"95.592","TLE_LINE2":"2 45712  53.0555 326.2569 0001444  71.3085 288.8060 15.06406719103953","APOAPSIS":"548.193","ECCENTRICITY":"0.00014440","EPOCH":"2022-04-11T21:25:36.116832","MEAN_MOTION_DOT":"0.00003828","CLASSIFICATION_TYPE":"U","LAUNCH_DATE":"2020-06-04","OBJECT_NAME":"STARLINK-1434","RCS_SIZE":"LARGE","REV_AT_EPOCH":"10395"},{"EPOCH":"2022-04-11T20:19:17.283648","ARG_OF_PERICENTER":"64.6399","OBJECT_ID":"2020-035BJ","MEAN_ELEMENT_THEORY":"SGP4","PERIOD":"95.594","MEAN_MOTION":"15.06373423","APOAPSIS":"548.354","ECCENTRICITY":"0.00015290","TLE_LINE2":"2 45713  53.0552 346.4504 0001529  64.6399 295.4749 15.06373423103651","LAUNCH_DATE":"2020-06-04","REV_AT_EPOCH":"10365","OBJECT_NAME":"STARLINK-1436","RCS_SIZE":"LARGE","MEAN_MOTION_DOT":"0.00000149","CLASSIFICATION_TYPE":"U","TLE_LINE1":"1 45713U 20035BJ  22101.84672782  .00000149  00000-0  28934-4 0  9994","SITE":"AFETR","REF_FRAME":"TEME","CENTER_NAME":"EARTH","GP_ID":"201014407","FILE":"3397723","DECAY_DATE":null,"COUNTRY_CODE":"US","INCLINATION":"53.0552","MEAN_ANOMALY":"295.4749","SEMIMAJOR_AXIS":"6925.430","PERIAPSIS":"546.236","NORAD_CAT_ID":"45713","MEAN_MOTION_DDOT":"0.0000000000000","TIME_SYSTEM":"UTC","ELEMENT_SET_NO":"999","BSTAR":"0.00002893400000","OBJECT_TYPE":"PAYLOAD","EPHEMERIS_TYPE":"0","RA_OF_ASC_NODE":"346.4504"},{"LAUNCH_DATE":"2020-06-04","OBJECT_NAME":"STARLINK-1437","RCS_SIZE":"LARGE","REV_AT_EPOCH":"10394","MEAN_MOTION_DOT":"0.00023388","CLASSIFICATION_TYPE":"U","EPOCH":"2022-04-11T20:06:02.488320","MEAN_MOTION":"15.06280251","ARG_OF_PERICENTER":"71.2838","OBJECT_ID":"2020-035BK","MEAN_ELEMENT_THEORY":"SGP4","PERIOD":"95.600","TLE_LINE2":"2 45714  53.0552 326.4989 0001164  71.2838 288.8277 15.06280251103944","APOAPSIS":"548.387","ECCENTRICITY":"0.00011640","MEAN_MOTION_DDOT":"0.0000000000000","NORAD_CAT_ID":"45714","ELEMENT_SET_NO":"999","TIME_SYSTEM":"UTC","OBJECT_TYPE":"PAYLOAD","EPHEMERIS_TYPE":"0","BSTAR":"0.00158890000000","RA_OF_ASC_NODE":"326.4989","SITE":"AFETR","REF_FRAME":"TEME","TLE_LINE1":"1 45714U 20035BK  22101.83752880  .00023388  00000-0  15889-2 0  9995","CENTER_NAME":"EARTH","GP_ID":"201014657","COUNTRY_CODE":"US","INCLINATION":"53.0552","MEAN_ANOMALY":"288.8277","FILE":"3397723","DECAY_DATE":null,"SEMIMAJOR_AXIS":"6925.716","PERIAPSIS":"546.774"},{"RCS_SIZE":"LARGE","OBJECT_NAME":"STARLINK-1461","REV_AT_EPOCH":"10095","LAUNCH_DATE":"2020-06-13","CLASSIFICATION_TYPE":"U","MEAN_MOTION_DOT":"0.00004191","EPOCH":"2022-04-11T13:59:44.538432","TLE_LINE2":"2 45730  53.0552 167.6371 0001805  50.7249 309.3900 15.06408655100952","ECCENTRICITY":"0.00018050","APOAPSIS":"548.437","MEAN_MOTION":"15.06408655","PERIOD":"95.592","MEAN_ELEMENT_THEORY":"SGP4","OBJECT_ID":"2020-038A","ARG_OF_PERICENTER":"50.7249","EPHEMERIS_TYPE":"0","OBJECT_TYPE":"PAYLOAD","BSTAR":"0.00030000000000","ELEMENT_SET_NO":"999","TIME_SYSTEM":"UTC","MEAN_MOTION_DDOT":"0.0000000000000","NORAD_CAT_ID":"45730","RA_OF_ASC_NODE":"167.6371","CENTER_NAME":"EARTH","GP_ID":"201014910","REF_FRAME":"TEME","SITE":"AFETR","TLE_LINE1":"1 45730U 20038A   22101.58315438  .00004191  00000-0  30000-3 0  9996","SEMIMAJOR_AXIS":"6925.322","PERIAPSIS":"545.937","MEAN_ANOMALY":"309.3900","INCLINATION":"53.0552","COUNTRY_CODE":"US","DECAY_DATE":null,"FILE":"3397723"},{"CLASSIFICATION_TYPE":"U","MEAN_MOTION_DOT":"0.00001594","LAUNCH_DATE":"2020-06-13","RCS_SIZE":"LARGE","OBJECT_NAME":"STARLINK-1465","REV_AT_EPOCH":"10094","MEAN_MOTION":"15.06388661","MEAN_ELEMENT_THEORY":"SGP4","PERIOD":"95.593","ARG_OF_PERICENTER":"66.2345","OBJECT_ID":"2020-038B","TLE_LINE2":"2 45731  53.0541 167.5740 0001553  66.2345 293.8806 15.06388661100944","ECCENTRICITY":"0.00015530","APOAPSIS":"548.324","EPOCH":"2022-04-11T14:20:59.346240","RA_OF_ASC_NODE":"167.5740","ELEMENT_SET_NO":"999","TIME_SYSTEM":"UTC","NORAD_CAT_ID":"45731","MEAN_MOTION_DDOT":"0.0000000000000","EPHEMERIS_TYPE":"0","OBJECT_TYPE":"PAYLOAD","BSTAR":"0.00012589000000","MEAN_ANOMALY":"293.8806","INCLINATION":"53.0541","COUNTRY_CODE":"US","DECAY_DATE":null,"FILE":"3397723","PERIAPSIS":"546.173","SEMIMAJOR_AXIS":"6925.383","REF_FRAME":"TEME","SITE":"AFETR","TLE_LINE1":"1 45731U 20038B   22101.59790910  .00001594  00000-0  12589-3 0  9996","CENTER_NAME":"EARTH","GP_ID":"201015660"},{"MEAN_MOTION_DDOT":"0.0000000000000","NORAD_CAT_ID":"45732","TIME_SYSTEM":"UTC","ELEMENT_SET_NO":"999","BSTAR":"0.00002589000000","OBJECT_TYPE":"PAYLOAD","EPHEMERIS_TYPE":"0","RA_OF_ASC_NODE":"167.3188","TLE_LINE1":"1 45732U 20038C   22101.65320144  .00000104  00000-0  25890-4 0  9998","SITE":"AFETR","REF_FRAME":"TEME","GP_ID":"201014408","CENTER_NAME":"EARTH","FILE":"3397723","DECAY_DATE":null,"COUNTRY_CODE":"US","MEAN_ANOMALY":"312.1080","INCLINATION":"53.0545","PERIAPSIS":"546.136","SEMIMAJOR_AXIS":"6925.388","LAUNCH_DATE":"2020-06-13","REV_AT_EPOCH":"10095","OBJECT_NAME":"STARLINK-1466","RCS_SIZE":"LARGE","MEAN_MOTION_DOT":"0.00000104","CLASSIFICATION_TYPE":"U","EPOCH":"2022-04-11T15:40:36.604416","ARG_OF_PERICENTER":"48.0047","OBJECT_ID":"2020-038C","PERIOD":"95.593","MEAN_ELEMENT_THEORY":"SGP4","MEAN_MOTION":"15.06387091","APOAPSIS":"548.370","ECCENTRICITY":"0.00016130","TLE_LINE2":"2 45732  53.0545 167.3188 0001613  48.0047 312.1080 15.06387091100953"},{"BSTAR":"0.00033180000000","OBJECT_TYPE":"PAYLOAD","EPHEMERIS_TYPE":"0","NORAD_CAT_ID":"45733","MEAN_MOTION_DDOT":"0.0000000000000","TIME_SYSTEM":"UTC","ELEMENT_SET_NO":"999","RA_OF_ASC_NODE":"167.2967","GP_ID":"201014658","CENTER_NAME":"EARTH","TLE_LINE1":"1 45733U 20038D   22101.66056791  .00004665  00000-0  33180-3 0  9990","SITE":"AFETR","REF_FRAME":"TEME","PERIAPSIS":"545.967","SEMIMAJOR_AXIS":"6925.330","FILE":"3397723","DECAY_DATE":null,"COUNTRY_CODE":"US","INCLINATION":"53.0520","MEAN_ANOMALY":"306.2934","REV_AT_EPOCH":"10095","OBJECT_NAME":"STARLINK-1467","RCS_SIZE":"LARGE","LAUNCH_DATE":"2020-06-13","MEAN_MOTION_DOT":"0.00004665","CLASSIFICATION_TYPE":"U","EPOCH":"2022-04-11T15:51:13.067424","APOAPSIS":"548.423","ECCENTRICITY":"0.00017730","TLE_LINE2":"2 45733  53.0520 167.2967 0001773  53.8219 306.2934 15.06406044100955","ARG_OF_PERICENTER":"53.8219","OBJECT_ID":"2020-038D","PERIOD":"95.592","MEAN_ELEMENT_THEORY":"SGP4","MEAN_MOTION":"15.06406044"},{"MEAN_MOTION_DOT":"0.00000945","CLASSIFICATION_TYPE":"U","REV_AT_EPOCH":"10095","OBJECT_NAME":"STARLINK-1468","RCS_SIZE":"LARGE","LAUNCH_DATE":"2020-06-13","APOAPSIS":"548.498","ECCENTRICITY":"0.00018430","TLE_LINE2":"2 45734  53.0549 167.3774 0001843  42.1971 317.9160 15.06397457100955","ARG_OF_PERICENTER":"42.1971","OBJECT_ID":"2020-038E","PERIOD":"95.592","MEAN_ELEMENT_THEORY":"SGP4","MEAN_MOTION":"15.06397457","EPOCH":"2022-04-11T15:24:40.654080","RA_OF_ASC_NODE":"167.3774","BSTAR":"0.00008236600000","OBJECT_TYPE":"PAYLOAD","EPHEMERIS_TYPE":"0","NORAD_CAT_ID":"45734","MEAN_MOTION_DDOT":"0.0000000000000","ELEMENT_SET_NO":"999","TIME_SYSTEM":"UTC","SEMIMAJOR_AXIS":"6925.356","PERIAPSIS":"545.945","FILE":"3397723","DECAY_DATE":null,"COUNTRY_CODE":"US","INCLINATION":"53.0549","MEAN_ANOMALY":"317.9160","CENTER_NAME":"EARTH","GP_ID":"201015410","TLE_LINE1":"1 45734U 20038E   22101.64213720  .00000945  00000-0  82366-4 0  9994","SITE":"AFETR","REF_FRAME":"TEME"},{"RA_OF_ASC_NODE":"168.1060","EPHEMERIS_TYPE":"0","OBJECT_TYPE":"PAYLOAD","BSTAR":"0.00038883000000","TIME_SYSTEM":"UTC","ELEMENT_SET_NO":"999","MEAN_MOTION_DDOT":"0.0000000000000","NORAD_CAT_ID":"45735","SEMIMAJOR_AXIS":"6925.395","PERIAPSIS":"546.055","MEAN_ANOMALY":"303.3607","INCLINATION":"53.0548","COUNTRY_CODE":"US","DECAY_DATE":null,"FILE":"3397378","CENTER_NAME":"EARTH","GP_ID":"200983076","REF_FRAME":"TEME","SITE":"AFETR","TLE_LINE1":"1 45735U 20038F   22101.47992491  .00005512  00000-0  38883-3 0  9994","CLASSIFICATION_TYPE":"U","MEAN_MOTION_DOT":"0.00005512","RCS_SIZE":"LARGE","OBJECT_NAME":"STARLINK-1471","REV_AT_EPOCH":"10092","LAUNCH_DATE":"2020-06-13","TLE_LINE2":"2 45735  53.0548 168.1060 0001740  56.7548 303.3607 15.06384873100929","ECCENTRICITY":"0.00017400","APOAPSIS":"548.465","MEAN_MOTION":"15.06384873","MEAN_ELEMENT_THEORY":"SGP4","PERIOD":"95.593","ARG_OF_PERICENTER":"56.7548","OBJECT_ID":"2020-038F","EPOCH":"2022-04-11T11:31:05.512224"},{"RA_OF_ASC_NODE":"153.7839","NORAD_CAT_ID":"45736","MEAN_MOTION_DDOT":"0.0000000000000","TIME_SYSTEM":"UTC","ELEMENT_SET_NO":"999","BSTAR":"0.00030591000000","OBJECT_TYPE":"PAYLOAD","EPHEMERIS_TYPE":"0","FILE":"3397378","DECAY_DATE":null,"COUNTRY_CODE":"US","MEAN_ANOMALY":"292.2869","INCLINATION":"53.0615","SEMIMAJOR_AXIS":"6836.455","PERIAPSIS":"456.085","TLE_LINE1":"1 45736U 20038G   22101.50322480  .00010468  00000-0  30591-3 0  9998","SITE":"AFETR","REF_FRAME":"TEME","GP_ID":"200981843","CENTER_NAME":"EARTH","MEAN_MOTION_DOT":"0.00010468","CLASSIFICATION_TYPE":"U","LAUNCH_DATE":"2020-06-13","REV_AT_EPOCH":"10113","OBJECT_NAME":"STARLINK-1472","RCS_SIZE":"LARGE","ARG_OF_PERICENTER":"67.8480","OBJECT_ID":"2020-038G","PERIOD":"93.758","MEAN_ELEMENT_THEORY":"SGP4","MEAN_MOTION":"15.35876568","APOAPSIS":"460.555","ECCENTRICITY":"0.00032690","TLE_LINE2":"2 45736  53.0615 153.7839 0003269  67.8480 292.2869 15.35876568101134","EPOCH":"2022-04-11T12:04:38.622720"}];
